[{"OBJECT_NAME":"BB4","OBJECT_ID":"2023-133B","EPOCH":"2026-03-09T21:37:27.149088","MEAN_MOTION":14.03089986,"ECCENTRICITY":0.00081277,"INCLINATION":80.9964,"RA_OF_ASC_NODE":101.1751,"ARG_OF_PERICENTER":265.8023,"MEAN_ANOMALY":94.2214,"EPHEMERIS_TYPE":0,"CLASSIFICATION_TYPE":"U","NORAD_CAT_ID":57757,"ELEMENT_SET_NO":999,"REV_AT_EPOCH":12736,"BSTAR":0.00015013184,"MEAN_MOTION_DOT":2.45e-6,"MEAN_MOTION_DDOT":0},{"OBJECT_NAME":"CZ-6A DEB","OBJECT_ID":"2024-140AEY","EPOCH":"2026-03-09T15:00:41.019264","MEAN_MOTION":14.17201682,"ECCENTRICITY":0.0062676,"INCLINATION":89.001,"RA_OF_ASC_NODE":286.6415,"ARG_OF_PERICENTER":154.639,"MEAN_ANOMALY":205.7898,"EPHEMERIS_TYPE":0,"CLASSIFICATION_TYPE":"U","NORAD_CAT_ID":64658,"ELEMENT_SET_NO":999,"REV_AT_EPOCH":7129,"BSTAR":0.00053418,"MEAN_MOTION_DOT":1.112e-5,"MEAN_MOTION_DDOT":0}]
